H-2A R/B                
1 28932U 06002B   26195.47176488  .00004756  00000+0  22732-3 0  9990
2 28932  98.2588 353.7802 0050743 168.4726 191.7680 15.18437894113666
RESURS-DK 1             
1 29228U 06021A   26195.59943745  .00000920  00000+0  57623-4 0  9998
2 29228  69.9308 268.5885 0007074 271.7724  88.2632 15.13317802106726
CZ-4B R/B               
1 29507U 06046C   26195.61100234  .00002457  00000+0  12275-3 0  9996
2 29507  97.5440 240.1339 0032530 184.1134 175.9837 15.17978564 79291
CZ-2C R/B               
1 31114U 07010B   26195.53479984  .00000026  00000+0  31296-4 0  9992
2 31114  98.4118 302.5510 0057781 285.7278  73.7531 14.20281655997720
COSMO-SKYMED 1          
1 31598U 07023A   26195.60388949  .00001372  00000+0  12381-3 0  9998
2 31598  97.8845  27.6916 0001372 103.7326 256.4048 14.97217563 33892
COSMOS 2428             
1 31792U 07029A   26195.61249351  .00000226  00000+0  14670-3 0  9994
2 31792  70.9382 296.8948 0007206  82.4280 277.7659 14.12934039982028
SL-16 R/B               
1 31793U 07029B   26195.62068730  .00000155  00000+0  10513-3 0  9999
2 31793  70.9745 265.5606 0001973 256.1675 210.9434 14.14851481983324
KORONAS-FOTON           
1 33504U 09003A   26195.26300612  .00007813  00000+0  15743-3 0  9991
2 33504  82.4306 144.0040 0012257  65.1997 295.0525 15.46284436965288
CZ-2C R/B               
1 37731U 11030B   26195.47221497  .00000510  00000+0  70529-4 0  9997
2 37731  97.8670 150.3694 0050862 298.5903 175.4615 14.81531598808869
H-2A R/B                
1 38341U 12025E   26195.51703080  .00000497  00000+0  50079-4 0  9990
2 38341  98.4848 172.9209 0042454 257.4072 102.2397 14.95836539767173
SHIJIAN-16 (SJ-16)      
1 39358U 13057A   26195.58600189  .00000634  00000+0  64257-4 0  9994
2 39358  74.9739 304.7876 0015825 166.2344 193.9280 14.92668802690431
SL-4 R/B                
1 39679U 14021B   26194.95523048  .00006912  00000+0  14490-3 0  9998
2 39679  51.6064  79.5833 0089754 203.9145 155.7659 15.42466475675741
ALOS-2                  
1 39766U 14029A   26195.59810841  .00000642  00000+0  92798-4 0  9996
2 39766  97.9234 292.3701 0001586  91.7867 268.3527 14.79472949655633
YAOGAN-29               
1 41038U 15069A   26195.63711747  .00000491  00000+0  66875-4 0  9995
2 41038  98.0020 224.3117 0000757  13.8036 346.3198 14.83106673574691
ASTRO-H (HITOMI)        
1 41337U 16012A   26195.45652029  .00001400  00000+0  76917-4 0  9992
2 41337  30.9983 258.0596 0009610 167.9051 192.1819 15.10631075571410
HXMT (HUIYAN)           
1 42758U 17034A   26195.62799907  .00002159  00000+0  11249-3 0  9999
2 42758  43.0154  30.2190 0032362 317.2788  42.5546 15.18685296501836
SAOCOM 1A               
1 43641U 18076A   26195.61283620  .00000422  00000+0  59584-4 0  9993
2 43641  97.8881  21.9628 0001458  87.1780 272.9600 14.82147673420160
H-2A R/B                
1 43682U 18084L   26195.64133646  .00011882  00000+0  24249-3 0  9993
2 43682  98.8535  80.5497 0020590 302.6906  57.2352 15.46187333425363
SAOCOM 1B               
1 46265U 20059A   26195.57653228 -.00000255  00000+0 -25489-4 0  9995
2 46265  97.8885  21.0233 0001529  81.6622 278.4765 14.82157089317547
CSS (TIANHE)            
1 48274U 21035A   26195.57396866  .00000755  00000+0  14022-4 0  9998
2 48274  41.4673 155.6004 0002207 299.8748  60.1871 15.58083657297448
COSMOS 2550             
1 48865U 21056A   26195.60717407  .00002905  00000+0  94105-4 0  9998
2 48865  67.1434  16.9621 0008497 270.4521  89.5660 15.33824180282924
CZ-2C R/B               
1 52794U 22058K   26194.96847119  .00028571  00000+0  29651-3 0  9999
2 52794  50.1857  23.9648 0030357  17.4301 342.7709 15.63792673229836
CZ-2C R/B               
1 54039U 22132E   26195.56673090  .00048024  00000+0  32388-3 0  9994
2 54039  97.2887 203.8820 0009584 345.3501  14.7485 15.74923166210257
GSLV R/B                
1 54149U 22138AN  26195.51853702  .00001263  00000+0  10559-3 0  9997
2 54149  87.3818 123.8067 0023615  54.4377 305.9051 14.97380651202904
XRISM                   
1 57800U 23137A   26195.31253378  .00001998  00000+0  10595-3 0  9990
2 57800  31.0007 183.8637 0007887 237.5195 122.4682 15.12665415156970
ACS3                    
1 59588U 24077B   26195.60888078  .00004677  00000+0  32580-2 0  9996
2 59588  97.1736 108.3200 0124911  37.3586 323.6186 13.95295024111860
SPACEMOBILE-003         
1 61045U 24163A   26195.49041066  .00000552  00000+0  39467-4 0  9999
2 61045  52.9669 183.8848 0004710 191.1614 168.9277 15.20702842101924
SPACEMOBILE-005         
1 61046U 24163B   26195.40813868  .00001133  00000+0  65582-4 0  9991
2 61046  52.9761 184.2104 0008672 193.5101 166.5662 15.20719732101902
SPACEMOBILE-001         
1 61047U 24163C   26195.53793967 -.00000088  00000+0  10798-4 0  9991
2 61047  52.9734 183.3249 0007257 191.7887 168.2939 15.20740239101926
SPACEMOBILE-002         
1 61048U 24163D   26195.25895061  .00005394  00000+0  25611-3 0  9992
2 61048  52.9771 184.6470 0006029 188.6826 171.4064 15.20781814101886
