OBJECT_NAME,OBJECT_ID,EPOCH,MEAN_MOTION,ECCENTRICITY,INCLINATION,RA_OF_ASC_NODE,ARG_OF_PERICENTER,MEAN_ANOMALY,EPHEMERIS_TYPE,CLASSIFICATION_TYPE,NORAD_CAT_ID,ELEMENT_SET_NO,REV_AT_EPOCH,BSTAR,MEAN_MOTION_DOT,MEAN_MOTION_DDOT
H-2A R/B,2006-002B,2026-07-14T11:19:20.485632,15.18437894,.00507437,98.2588,353.7802,168.4726,191.7680,0,U,28932,999,11366,.22731998E-3,.4756E-4,0
RESURS-DK 1,2006-021A,2026-07-14T14:23:11.395680,15.13317802,.00070749,69.9308,268.5885,271.7724,88.2632,0,U,29228,999,10672,.57622555E-4,.92E-5,0
CZ-4B R/B,2006-046C,2026-07-14T14:39:50.602176,15.17978564,.00325302,97.5440,240.1339,184.1134,175.9837,0,U,29507,999,7929,.1227538E-3,.2457E-4,0
CZ-2C R/B,2007-010B,2026-07-14T12:50:06.706176,14.20281655,.00577819,98.4118,302.5510,285.7278,73.7531,0,U,31114,999,99772,.31296138E-4,.26E-6,0
COSMO-SKYMED 1,2007-023A,2026-07-14T14:29:36.051936,14.97217563,.00013722,97.8845,27.6916,103.7326,256.4048,0,U,31598,999,3389,.12381287E-3,.1372E-4,0
COSMOS 2428,2007-029A,2026-07-14T14:41:59.439264,14.12934039,.0007206,70.9382,296.8948,82.4280,277.7659,0,U,31792,999,98202,.14669903E-3,.226E-5,0
SL-16 R/B,2007-029B,2026-07-14T14:53:47.382720,14.14851481,.00019736,70.9745,265.5606,256.1675,210.9434,0,U,31793,999,98332,.10513199E-3,.155E-5,0
KORONAS-FOTON,2009-003A,2026-07-14T06:18:43.728768,15.46284436,.00122576,82.4306,144.0040,65.1997,295.0525,0,U,33504,999,96528,.15742886E-3,.7813E-4,0
CZ-2C R/B,2011-030B,2026-07-14T11:19:59.373408,14.81531598,.0050862,97.8670,150.3694,298.5903,175.4615,0,U,37731,999,80886,.70529184E-4,.51E-5,0
H-2A R/B,2012-025E,2026-07-14T12:24:31.461120,14.95836539,.00424548,98.4848,172.9209,257.4072,102.2397,0,U,38341,999,76717,.50079446E-4,.497E-5,0
SHIJIAN-16 (SJ-16),2013-057A,2026-07-14T14:03:50.563296,14.92668802,.00158256,74.9739,304.7876,166.2344,193.9280,0,U,39358,999,69043,.6425673E-4,.634E-5,0
SL-4 R/B,2014-021B,2026-07-13T22:55:31.913472,15.42466475,.00897543,51.6064,79.5833,203.9145,155.7659,0,U,39679,999,67574,.14489948E-3,.6912E-4,0
ALOS-2,2014-029A,2026-07-14T14:21:16.566624,14.79472949,.00015863,97.9234,292.3701,91.7867,268.3527,0,U,39766,999,65563,.92798281E-4,.642E-5,0
YAOGAN-29,2015-069A,2026-07-14T15:17:26.949408,14.83106673,.00007573,98.0020,224.3117,13.8036,346.3198,0,U,41038,999,57469,.66874753E-4,.491E-5,0
ASTRO-H (HITOMI),2016-012A,2026-07-14T10:57:23.353056,15.10631075,.00096104,30.9983,258.0596,167.9051,192.1819,0,U,41337,999,57141,.76916703E-4,.14E-4,0
HXMT (HUIYAN),2017-034A,2026-07-14T15:04:19.119648,15.18685296,.00323623,43.0154,30.2190,317.2788,42.5546,0,U,42758,999,50183,.11249206E-3,.2159E-4,0
SAOCOM 1A,2018-076A,2026-07-14T14:42:29.047680,14.82147673,.00014583,97.8881,21.9628,87.1780,272.9600,0,U,43641,999,42016,.59583537E-4,.422E-5,0
H-2A R/B,2018-084L,2026-07-14T15:23:31.470144,15.46187333,.00205902,98.8535,80.5497,302.6906,57.2352,0,U,43682,999,42536,.24249297E-3,.11882E-3,0
SAOCOM 1B,2020-059A,2026-07-14T13:50:12.388992,14.82157089,.00015294,97.8885,21.0233,81.6622,278.4765,0,U,46265,999,31754,-.25488811E-4,-.255E-5,0
CSS (TIANHE),2021-035A,2026-07-14T13:46:30.892224,15.58083657,.00022079,41.4673,155.6004,299.8748,60.1871,0,U,48274,999,29744,.14021521E-4,.755E-5,0
COSMOS 2550,2021-056A,2026-07-14T14:34:19.839648,15.33824180,.0008497,67.1434,16.9621,270.4521,89.5660,0,U,48865,999,28292,.94105092E-4,.2905E-4,0
CZ-2C R/B,2022-058K,2026-07-13T23:14:35.910816,15.63792673,.00303572,50.1857,23.9648,17.4301,342.7709,0,U,52794,999,22983,.29650931E-3,.28571E-3,0
CZ-2C R/B,2022-132E,2026-07-14T13:36:05.549760,15.74923166,.00095844,97.2887,203.8820,345.3501,14.7485,0,U,54039,999,21025,.32387839E-3,.48024E-3,0
GSLV R/B,2022-138AN,2026-07-14T12:26:41.598528,14.97380651,.00236154,87.3818,123.8067,54.4377,305.9051,0,U,54149,999,20290,.10558759E-3,.1263E-4,0
XRISM,2023-137A,2026-07-14T07:30:02.918592,15.12665415,.00078871,31.0007,183.8637,237.5195,122.4682,0,U,57800,999,15697,.10594889E-3,.1998E-4,0
ACS3,2024-077B,2026-07-14T14:36:47.299392,13.95295024,.01249118,97.1736,108.3200,37.3586,323.6186,0,U,59588,999,11186,.32580036E-2,.4677E-4,0
SPACEMOBILE-003,2024-163A,2026-07-14T11:46:11.481024,15.20702842,.00047104,52.9669,183.8848,191.1614,168.9277,0,U,61045,999,10192,.39466722E-4,.552E-5,0
SPACEMOBILE-005,2024-163B,2026-07-14T09:47:43.181952,15.20719732,.00086722,52.9761,184.2104,193.5101,166.5662,0,U,61046,999,10190,.65581849E-4,.1133E-4,0
SPACEMOBILE-001,2024-163C,2026-07-14T12:54:37.987488,15.20740239,.00072577,52.9734,183.3249,191.7887,168.2939,0,U,61047,999,10192,.10797776E-4,-.88E-6,0
SPACEMOBILE-002,2024-163D,2026-07-14T06:12:53.332704,15.20781814,.00060297,52.9771,184.6470,188.6826,171.4064,0,U,61048,999,10188,.25611359E-3,.5394E-4,0
